TEMPEST-D               
1 43547U 98067NV  20103.77645855  .00006889  00000-0  84089-4 0  9990
2 43547  51.6368 283.2560 0005156 164.2648 195.8507 15.61740942 99257
RAINCUBE                
1 43548U 98067NW  20103.94365394  .00027003  00000-0  21453-3 0  9993
2 43548  51.6338 265.4978 0004178 203.4279 156.6529 15.71031496 99953
HALOSAT                 
1 43549U 98067NX  20104.81001848  .00025384  00000-0  20580-3 0  9992
2 43549  51.6357 261.5937 0003559 209.9574 150.1220 15.70584135 99643
ENDUROSAT ONE           
1 43551U 98067NZ  20103.91445844  .00048221  00000-0  30687-3 0  9997
2 43551  51.6351 257.7790 0004231 225.9864 134.0788 15.75932949100022
EQUISAT                 
1 43552U 98067PA  20103.91152064  .00026711  00000-0  21139-3 0  9999
2 43552  51.6359 264.6330 0004728 210.9584 149.1136 15.71127893 99898
AEROCUBE 12A            
1 43556U 18046C   20104.76084770  .00001234  00000-0  54790-4 0  9997
2 43556  51.6411  56.3575 0008893  65.4676 294.7230 15.29600281 97474
AEROCUBE 12B            
1 43557U 18046D   20103.89536029  .00001935  00000-0  79449-4 0  9996
2 43557  51.6415  61.0701 0008780  62.5561 297.6311 15.29343370 97283
UITMSAT-1               
1 43589U 98067PD  20104.79499442  .00034303  00000-0  24892-3 0  9995
2 43589  51.6321 259.1221 0004394 229.9835 130.0778 15.73048961 95788
MAYA-1                  
1 43590U 98067PE  20104.72444598  .00035073  00000-0  25444-3 0  9991
2 43590  51.6326 259.4109 0004469 229.3498 130.7112 15.73043511 95702
BHUTAN-1                
1 43591U 98067PF  20103.81271619  .00035086  00000-0  25423-3 0  9994
2 43591  51.6339 263.8787 0004567 224.8933 135.1697 15.73071121 95560
SIRIUSSAT-1             
1 43595U 98067PG  20104.78993919  .00032358  00000-0  25416-3 0  9990
2 43595  51.6324 262.8685 0002328 201.0339 159.0564 15.71208006 94844
SIRIUSSAT-2             
1 43596U 98067PH  20104.72011938  .00031335  00000-0  24753-3 0  9994
2 43596  51.6334 263.9708 0002688 193.8933 166.1991 15.71087994 94823
TANUSHA-3               
1 43597U 98067PJ  20103.46638595  .00066672  00000-0  38777-3 0  9992
2 43597  51.6310 261.4145 0002665 238.4667 121.6073 15.77843200 94745
SURFSAT                 
1 43614U 18070B   20104.77470800  .00002551  00000-0  66417-4 0  9995
2 43614  93.0223 127.8625 0013399 218.6709 141.3587 15.38880192 88536
CP7 (DAVE)              
1 43615U 18070C   20104.80036827  .00002416  00000-0  63169-4 0  9998
2 43615  93.0226 127.8671 0013572 218.1962 141.8331 15.38751791 88534
ELFIN-B                 
1 43616U 18070D   20103.33495299  .00004066  00000-0  10208-3 0  9996
2 43616  93.0187 127.1852 0013746 227.0186 132.9917 15.39952364 88345
ELFIN-A                 
1 43617U 18070E   20103.83041707  .00003633  00000-0  90797-4 0  9994
2 43617  93.0241 127.8474 0013265 220.6447 139.3819 15.40107769 88423
CUBEBEL-1 (BSUSAT-1)    
1 43666U 18083E   20104.85873659  .00000963  00000-0  50437-4 0  9994
2 43666  97.4945 131.9457 0013749 220.6452 312.1385 15.18135185 80818
DEBRISSAT-2             
1 43680U 98067PR  20104.67896678  .00154281  00000-0  52655-3 0  9992
2 43680  51.6311 247.7461 0005842 293.8865  66.1528 15.88776697103760
CICERO 10               
1 43690U 18088A   20104.78650757  .00001011  00000-0  44810-4 0  9993
2 43690  85.0346 120.9363 0014783 178.2311 181.8985 15.20133372 78912
IRVINE01                
1 43693U 18088D   20104.76250415  .00002301  00000-0  96942-4 0  9997
2 43693  85.0320 119.8328 0018585 161.6223 198.5695 15.22589260 79004
PROXIMA I               
1 43694U 18088E   20104.58932975  .00000899  00000-0  37540-4 0  9995
2 43694  85.0289 119.7602 0020135 155.5307 204.6896 15.21860926 78979
PROXIMA II              
1 43696U 18088G   20104.78491472  .00000891  00000-0  37165-4 0  9996
2 43696  85.0290 119.6337 0020211 154.7751 205.4482 15.21863900 79006
FACSAT-1                
1 43721U 18096C   20104.80105756  .00001235  00000-0  49156-4 0  9990
2 43721  97.4242 178.7192 0017362 356.8253   3.2873 15.27054742 76523
CENTAURI-2              
1 43722U 18096D   20104.78252767  .00001893  00000-0  72836-4 0  9994
2 43722  97.4247 178.9174 0017311 356.9849   3.1283 15.27524647 76527
INNOSAT-2               
1 43738U 18096V   20104.78536696  .00002344  00000-0  82731-4 0  9994
2 43738  97.4261 180.6256 0023358   3.3687 356.7706 15.30017471 76648
SIRION PATHFINDER-2     
1 43759U 18099B   20104.80036723  .00000262  00000-0  29003-4 0  9999
2 43759  97.7092 177.5495 0015189  44.1137 316.1292 14.95249029 74264
CORVUS-BC 4             
1 43767U 18099K   20104.65063393 -.00000114  00000-0 -52243-5 0  9995
2 43767  97.7077 176.8832 0012846  48.8842 311.3485 14.94693592 74228
MOVE-II                 
1 43780U 18099Y   20104.14895887  .00000880  00000-0  84848-4 0  9998
2 43780  97.7101 176.8231 0014778  57.7535 302.5116 14.95335884 74151
SPACEBEE-7              
1 43816U 18099BL  20104.43578248  .00000215  00000-0  24515-4 0  9996
2 43816  97.7115 177.4568 0014368  41.9841 318.2478 14.95641734 73772
SPACEBEE-5              
1 43817U 18099BM  20104.14678455  .00001388  00000-0  12814-3 0  9996
2 43817  97.7159 177.5195 0013907  44.6060 315.6278 14.96177601 73743
SPACEBEE-6              
1 43818U 18099BN  20104.67469908  .00000894  00000-0  85159-4 0  9990
2 43818  97.7125 177.8008 0014085  41.7179 318.5114 14.95808853 73964
SHIELDS 1               
1 43850U 18104B   20104.34845611  .00000041  00000-0  00000+0 0  9997
2 43850  85.0310 218.3694 0013609 317.9098  42.1096 15.21331191 73579
STF-1                   
1 43852U 18104D   20104.35570750  .00000041  00000-0  00000+0 0  9999
2 43852  85.0360 218.8615 0013571 333.4800  26.5791 15.21155649 73554
ZACUBE-2                
1 43907U 18111AH  20104.80194027  .00000579  00000-0  26227-4 0  9997
2 43907  97.2710   6.4939 0022063  16.6018 343.5938 15.24521579 72169
LUME 1                  
1 43908U 18111AJ  20104.74399545  .00001172  00000-0  49623-4 0  9998
2 43908  97.2710   6.5672 0021878  16.5915 343.6034 15.24913003 72168
AOBA VELOX-IV           
1 43940U 19003J   20104.69984334  .00002195  00000-0  90570-4 0  9998
2 43940  97.2354 158.1821 0025886  92.8354  31.9925 15.24779332 68789
CATSAT-2                
1 44029U 98067PV  20104.21633386  .00018231  00000-0  20034-3 0  9995
2 44029  51.6383 286.2447 0004125 195.9286 164.1579 15.63244120 68311
DELPHINI                
1 44030U 98067PW  20104.78156789  .00020054  00000-0  21320-3 0  9991
2 44030  51.6348 282.4357 0004210 198.7482 161.3358 15.64017916 68389
UNITE                   
1 44031U 98067PX  20104.70415765  .00010738  00000-0  13554-3 0  9994
2 44031  51.6371 287.9676 0003271 185.9046 174.1909 15.60159023 68308
TECHEDSAT 8             
1 44032U 98067PY  20104.72313406  .00963229  51098-3  12501-2 0  9994
2 44032  51.6213 256.2443 0012656 306.1777  53.8064 16.06346217 68703
CATSAT-1                
1 44033U 98067PZ  20104.79152655  .00017146  00000-0  18863-3 0  9999
2 44033  51.6386 283.3405 0004022 196.3767 163.7098 15.63265954 68315
RAAVANA-1               
1 44329U 98067QE  20103.73946428  .00011256  00000-0  16142-3 0  9993
2 44329  51.6391 303.3169 0006633 119.2831 240.8824 15.56655365 46765
UGUISU                  
1 44330U 98067QF  20103.74881598  .00009833  00000-0  14228-3 0  9993
2 44330  51.6390 303.3760 0006634 118.5352 241.6308 15.56583612 46743
NEPALISAT-1             
1 44331U 98067QG  20103.98984283  .00009775  00000-0  14094-3 0  9991
2 44331  51.6389 301.9887 0006659 121.3484 238.8160 15.56688422 46795
SPOOQY-1                
1 44332U 98067QH  20104.82436830  .00011019  00000-0  15827-3 0  9995
2 44332  51.6389 297.8090 0005578 126.7610 233.3894 15.56643638 46888
SPACEBEE-9              
1 44370U 19037F   20104.21632213  .00007886  00000-0  18551-3 0  9997
2 44370  45.0135 120.2694 0011513 165.2303 194.8928 15.42500674 44523
SPACEBEE-8              
1 44371U 19037G   20104.44873098  .00015648  00000-0  32182-3 0  9992
2 44371  45.0124 115.2623 0008934 169.8290 190.2789 15.45830502 44597
IOD-1 GEMS              
1 44385U 98067QK  20104.25393362  .00018348  00000-0  24352-3 0  9997
2 44385  51.6403 300.0397 0002628  92.2270 267.9023 15.58286813 44315
MOVE-IIB                
1 44398U 19038N   20104.84007735  .00001388  00000-0  83660-4 0  9997
2 44398  97.5300  66.9261 0025226 354.2301   5.8635 15.12186792 42813
SONATE                  
1 44400U 19038Q   20104.13227351  .00000476  00000-0  31441-4 0  9998
2 44400  97.5332  66.2469 0025138 354.8419   5.2549 15.11893086 42709
LUCKY-7                 
1 44406U 19038W   20104.82082720  .00000717  00000-0  45147-4 0  9995
2 44406  97.5327  67.0082 0024515 352.2995   7.7856 15.12143419 42806
BEESAT 9                
1 44412U 19038AC  20104.16062148  .00001071  00000-0  65477-4 0  9993
2 44412  97.5319  66.3385 0022868   0.8427 359.2838 15.12194779 42403
JAISAT-1                
1 44419U 19038F   20103.93714906  .00000896  00000-0  54732-4 0  9996
2 44419  97.5322  66.3327 0021724   1.1190 359.0085 15.12676660 42698
SWIATOWID               
1 44426U 98067QL  20104.83488472  .00020254  00000-0  26263-3 0  9996
2 44426  51.6412 296.8857 0003268  93.1096  36.2267 15.58833705 44428
KRAKSAT                 
1 44427U 98067QM  20104.83276128  .00007891  00000-0  12211-3 0  9990
2 44427  51.6409 300.1482 0003792  81.5910 278.5511 15.55071274 44421
VCC A                   
1 44428U 98067QN  20104.79828111  .00010371  00000-0  15236-3 0  9998
2 44428  51.6413 299.1718 0003084 104.0634 256.0701 15.56110241 44436
ENTRYSAT                
1 44429U 98067QP  20104.73980933  .00012768  00000-0  18094-3 0  9991
2 44429  51.6391 298.7650 0002730  98.2604 261.8698 15.56849641 44432
VCC C                   
1 44430U 98067QQ  20103.53680899  .00016599  00000-0  22625-3 0  9999
2 44430  51.6394 304.2409 0002811 107.2305 252.8995 15.57653755 43070
